*******************************************************************************
 Revised: July 31, 2013             Moon / (Earth)                          301
 
 GEOPHYSICAL DATA (updated 2018-Aug-15):
  Vol. mean radius, km  = 1737.53+-0.03    Mass, x10^22 kg       =    7.349
  Radius (gravity), km  = 1738.0           Surface emissivity    =    0.92
  Radius (IAU), km      = 1737.4           GM, km^3/s^2          = 4902.800066
  Density, g/cm^3       =    3.3437        GM 1-sigma, km^3/s^2  =  +-0.0001  
  V(1,0)                =   +0.21          Surface accel., m/s^2 =    1.62
  Earth/Moon mass ratio = 81.3005690769    Farside crust. thick. = ~80 - 90 km
  Mean crustal density  = 2.97+-.07 g/cm^3 Nearside crust. thick.= 58+-8 km 
  Heat flow, Apollo 15  = 3.1+-.6 mW/m^2   Mean angular diameter = 31'05.2"
  Heat flow, Apollo 17  = 2.2+-.5 mW/m^2   Sid. rot. rate, rad/s = 0.0000026617
  Geometric Albedo      = 0.12             Mean solar day        = 29.5306 d
  Obliquity to orbit    = 6.67 deg         Orbit period          = 27.321582 d
  Semi-major axis, a    = 384400 km        Eccentricity          = 0.05490
  Mean motion, rad/s    = 2.6616995x10^-6  Inclination           = 5.145 deg
  Apsidal period        = 3231.50 d        Nodal period          = 6798.38 d
                                 Perihelion  Aphelion    Mean
  Solar Constant (W/m^2)         1414+-7     1323+-7     1368+-7
  Maximum Planetary IR (W/m^2)   1314        1226        1268
  Minimum Planetary IR (W/m^2)      5.2         5.2         5.2
********************************************************************************


*******************************************************************************
Ephemeris / WWW_USER Tue Mar  7 15:43:28 2023 Pasadena, USA      / Horizons
*******************************************************************************
Target body name: Moon (301)                      {source: DE441}
Center body name: Earth (399)                     {source: DE441}
Center-site name: BODY CENTER
*******************************************************************************
Start time      : A.D. 2022-Nov-16 09:03:00.0000 TDB
Stop  time      : A.D. 2022-Dec-11 17:21:14.7640 TDB
Step-size       : 60 minutes
*******************************************************************************
Center geodetic : 0.0, 0.0, 0.0                   {E-lon(deg),Lat(deg),Alt(km)}
Center cylindric: 0.0, 0.0, 0.0                   {E-lon(deg),Dxy(km),Dz(km)}
Center radii    : 6378.137, 6378.137, 6356.752 km {Equator_a, b, pole_c}
Output units    : KM-S
Calendar mode   : Mixed Julian/Gregorian
Output type     : GEOMETRIC cartesian states
Output format   : 1x (position w/uncertainties: XYZ)
EOP file        : eop.230306.p230530
EOP coverage    : DATA-BASED 1962-JAN-20 TO 2023-MAR-06. PREDICTS-> 2023-MAY-29
Reference frame : Ecliptic of J2000.0
*******************************************************************************
            JDTDB             Calendar Date (TDB),                      X,                      Y,                      Z,             X_s,             Y_s,             Z_s,
*****************************************************************************************************************************************************************************
$$SOE
2459923.627083333, A.D. 2022-Dec-10 03:03:00.0000, -6.511198451834447E+04,  3.978756997778786E+05,  3.046048764401482E+04,            n.a.,            n.a.,            n.a.,
2459923.668750000, A.D. 2022-Dec-10 04:03:00.0000, -6.857902354036229E+04,  3.973439244326627E+05,  3.063772778231592E+04,            n.a.,            n.a.,            n.a.,
2459923.710416667, A.D. 2022-Dec-10 05:03:00.0000, -7.204047525168458E+04,  3.967811006567870E+05,  3.081252863458422E+04,            n.a.,            n.a.,            n.a.,
2459923.752083333, A.D. 2022-Dec-10 06:03:00.0000, -7.549606753013608E+04,  3.961872860719824E+05,  3.098487741248845E+04,            n.a.,            n.a.,            n.a.,
2459923.793750000, A.D. 2022-Dec-10 07:03:00.0000, -7.894552892545419E+04,  3.955625404048132E+05,  3.115476151365653E+04,            n.a.,            n.a.,            n.a.,
2459923.835416667, A.D. 2022-Dec-10 08:03:00.0000, -8.238858867235390E+04,  3.949069254777278E+05,  3.132216852187170E+04,            n.a.,            n.a.,            n.a.,
2459923.877083333, A.D. 2022-Dec-10 09:03:00.0000, -8.582497670344518E+04,  3.942205052000862E+05,  3.148708620725747E+04,            n.a.,            n.a.,            n.a.,
2459923.918750000, A.D. 2022-Dec-10 10:03:00.0000, -8.925442366200402E+04,  3.935033455591681E+05,  3.164950252645242E+04,            n.a.,            n.a.,            n.a.,
2459923.960416667, A.D. 2022-Dec-10 11:03:00.0000, -9.267666091459802E+04,  3.927555146111692E+05,  3.180940562277424E+04,            n.a.,            n.a.,            n.a.,
2459924.002083333, A.D. 2022-Dec-10 12:03:00.0000, -9.609142056356759E+04,  3.919770824721802E+05,  3.196678382637427E+04,            n.a.,            n.a.,            n.a.,
2459924.043750000, A.D. 2022-Dec-10 13:03:00.0000, -9.949843545936403E+04,  3.911681213091592E+05,  3.212162565438138E+04,            n.a.,            n.a.,            n.a.,
2459924.085416667, A.D. 2022-Dec-10 14:03:00.0000, -1.028974392127457E+05,  3.903287053308948E+05,  3.227391981103734E+04,            n.a.,            n.a.,            n.a.,
2459924.127083333, A.D. 2022-Dec-10 15:03:00.0000, -1.062881662068332E+05,  3.894589107789650E+05,  3.242365518782209E+04,            n.a.,            n.a.,            n.a.,
2459924.168750000, A.D. 2022-Dec-10 16:03:00.0000, -1.096703516090255E+05,  3.885588159186949E+05,  3.257082086357012E+04,            n.a.,            n.a.,            n.a.,
2459924.210416667, A.D. 2022-Dec-10 17:03:00.0000, -1.130437313827781E+05,  3.876285010301136E+05,  3.271540610457869E+04,            n.a.,            n.a.,            n.a.,
2459924.252083333, A.D. 2022-Dec-10 18:03:00.0000, -1.164080422992438E+05,  3.866680483989150E+05,  3.285740036470661E+04,            n.a.,            n.a.,            n.a.,
2459924.293750000, A.D. 2022-Dec-10 19:03:00.0000, -1.197630219487796E+05,  3.856775423074249E+05,  3.299679328546548E+04,            n.a.,            n.a.,            n.a.,
2459924.335416667, A.D. 2022-Dec-10 20:03:00.0000, -1.231084087523189E+05,  3.846570690255753E+05,  3.313357469610250E+04,            n.a.,            n.a.,            n.a.,
2459924.377083333, A.D. 2022-Dec-10 21:03:00.0000, -1.264439419726123E+05,  3.836067168018906E+05,  3.326773461367612E+04,            n.a.,            n.a.,            n.a.,
2459924.418750000, A.D. 2022-Dec-10 22:03:00.0000, -1.297693617253379E+05,  3.825265758544860E+05,  3.339926324312369E+04,            n.a.,            n.a.,            n.a.,
2459924.460416667, A.D. 2022-Dec-10 23:03:00.0000, -1.330844089900831E+05,  3.814167383620831E+05,  3.352815097732210E+04,            n.a.,            n.a.,            n.a.,
2459924.502083333, A.D. 2022-Dec-11 00:03:00.0000, -1.363888256211990E+05,  3.802772984550424E+05,  3.365438839714171E+04,            n.a.,            n.a.,            n.a.,
2459924.543750000, A.D. 2022-Dec-11 01:03:00.0000, -1.396823543585296E+05,  3.791083522064163E+05,  3.377796627149355E+04,            n.a.,            n.a.,            n.a.,
2459924.585416667, A.D. 2022-Dec-11 02:03:00.0000, -1.429647388380189E+05,  3.779099976230257E+05,  3.389887555736979E+04,            n.a.,            n.a.,            n.a.,
2459924.627083333, A.D. 2022-Dec-11 03:03:00.0000, -1.462357236021949E+05,  3.766823346365610E+05,  3.401710739987891E+04,            n.a.,            n.a.,            n.a.,
2459924.668750000, A.D. 2022-Dec-11 04:03:00.0000, -1.494950541105352E+05,  3.754254650947121E+05,  3.413265313227422E+04,            n.a.,            n.a.,            n.a.,
2459924.710416667, A.D. 2022-Dec-11 05:03:00.0000, -1.527424767497152E+05,  3.741394927523261E+05,  3.424550427597738E+04,            n.a.,            n.a.,            n.a.,
2459924.752083333, A.D. 2022-Dec-11 06:03:00.0000, -1.559777388437401E+05,  3.728245232625983E+05,  3.435565254059642E+04,            n.a.,            n.a.,            n.a.,
2459924.793750000, A.D. 2022-Dec-11 07:03:00.0000, -1.592005886639640E+05,  3.714806641682959E+05,  3.446308982393876E+04,            n.a.,            n.a.,            n.a.,
2459924.835416667, A.D. 2022-Dec-11 08:03:00.0000, -1.624107754389980E+05,  3.701080248930188E+05,  3.456780821201971E+04,            n.a.,            n.a.,            n.a.,
2459924.877083333, A.D. 2022-Dec-11 09:03:00.0000, -1.656080493645085E+05,  3.687067167324981E+05,  3.466979997906605E+04,            n.a.,            n.a.,            n.a.,
2459924.918750000, A.D. 2022-Dec-11 10:03:00.0000, -1.687921616129097E+05,  3.672768528459347E+05,  3.476905758751585E+04,            n.a.,            n.a.,            n.a.,
2459924.960416667, A.D. 2022-Dec-11 11:03:00.0000, -1.719628643429501E+05,  3.658185482473801E+05,  3.486557368801434E+04,            n.a.,            n.a.,            n.a.,
2459925.002083333, A.D. 2022-Dec-11 12:03:00.0000, -1.751199107091984E+05,  3.643319197971612E+05,  3.495934111940597E+04,            n.a.,            n.a.,            n.a.,
2459925.043750000, A.D. 2022-Dec-11 13:03:00.0000, -1.782630548714279E+05,  3.628170861933512E+05,  3.505035290872297E+04,            n.a.,            n.a.,            n.a.,
2459925.085416667, A.D. 2022-Dec-11 14:03:00.0000, -1.813920520039047E+05,  3.612741679632880E+05,  3.513860227117139E+04,            n.a.,            n.a.,            n.a.,
2459925.127083333, A.D. 2022-Dec-11 15:03:00.0000, -1.845066583045797E+05,  3.597032874551422E+05,  3.522408261011328E+04,            n.a.,            n.a.,            n.a.,
2459925.168750000, A.D. 2022-Dec-11 16:03:00.0000, -1.876066310041890E+05,  3.581045688295360E+05,  3.530678751704779E+04,            n.a.,            n.a.,            n.a.,
